CTC1_L_00420016-03
1 30842U 25228PU  26070.40836806  .00000000  00000+0  00000-0 0  9995
2 30842  95.0000 180.0000 0000000   0.0000   0.0000 12.77881384    12
CTC1_L_00420016-04
1 30843U 23676FB  26070.40836806  .00000000  00000+0  00000-0 0  9991
2 30843  95.0000 180.0000 0000000   0.0000  90.0000 12.77881384    12
CTC1_L_00420017-01
1 30844U 25100EV  26070.40836806  .00000000  00000+0  00000-0 0  9996
2 30844  95.0000 192.0000 0000000   0.0000 192.0000 12.77881384    19
CTC1_L_00420017-02
1 30845U 26342YA  26070.40836806  .00000000  00000+0  00000-0 0  9996
2 30845  95.0000 192.0000 0000000   0.0000 282.0000 12.77881384    10
CTC1_L_00420017-03
1 30846U 24925LB  26070.40836806  .00000000  00000+0  00000-0 0  9992
2 30846  95.0000 192.0000 0000000   0.0000  12.0000 12.77881384    12
CTC1_L_00420017-04
1 30847U 23127PT  26070.40836806  .00000000  00000+0  00000-0 0  9996
2 30847  95.0000 192.0000 0000000   0.0000 102.0000 12.77881384    13
CTC1_L_00420018-01
1 30848U 25571IA  26070.40836806  .00000000  00000+0  00000-0 0  9992
2 30848  95.0000 204.0000 0000000   0.0000 204.0000 12.77881384    11
CTC1_L_00420018-02
1 30849U 26575NB  26070.40836806  .00000000  00000+0  00000-0 0  9998
2 30849  95.0000 204.0000 0000000   0.0000 294.0000 12.77881384    11
CTC1_L_00420018-03
1 30850U 24980AY  26070.40836806  .00000000  00000+0  00000-0 0  9998
2 30850  95.0000 204.0000 0000000   0.0000  24.0000 12.77881384    14
CTC1_L_00420018-04
1 30851U 24934E   26070.40836806  .00000000  00000+0  00000-0 0  9998
2 30851  95.0000 204.0000 0000000   0.0000 114.0000 12.77881384    15
CTC1_L_00420019-01
1 30852U 24165TD  26070.40836806  .00000000  00000+0  00000-0 0  9995
2 30852  95.0000 216.0000 0000000   0.0000 216.0000 12.77881384    12
CTC1_L_00420019-02
1 30853U 23889ER  26070.40836806  .00000000  00000+0  00000-0 0  9998
2 30853  95.0000 216.0000 0000000   0.0000 306.0000 12.77881384    13
CTC1_L_00420019-03
1 30854U 25070LC  26070.40836806  .00000000  00000+0  00000-0 0  9993
2 30854  95.0000 216.0000 0000000   0.0000  36.0000 12.77881384    14
CTC1_L_00420019-04
1 30855U 26354FH  26070.40836806  .00000000  00000+0  00000-0 0  9990
2 30855  95.0000 216.0000 0000000   0.0000 126.0000 12.77881384    15
CTC1_L_00420020-01
1 30856U 22788KD  26070.40836806  .00000000  00000+0  00000-0 0  9998
2 30856  95.0000 228.0000 0000000   0.0000 228.0000 12.77881384    12
CTC1_L_00420020-02
1 30857U 24052SM  26070.40836806  .00000000  00000+0  00000-0 0  9995
2 30857  95.0000 228.0000 0000000   0.0000 318.0000 12.77881384    13
CTC1_L_00420020-03
1 30858U 22717GJ  26070.40836806  .00000000  00000+0  00000-0 0  9992
2 30858  95.0000 228.0000 0000000   0.0000  48.0000 12.77881384    14
CTC1_L_00420020-04
1 30859U 25367ZV  26070.40836806  .00000000  00000+0  00000-0 0  9997
2 30859  95.0000 228.0000 0000000   0.0000 138.0000 12.77881384    15
CTC1_L_00420021-01
1 30860U 26464YZ  26070.40836806  .00000000  00000+0  00000-0 0  9998
2 30860  95.0000 240.0000 0000000   0.0000 240.0000 12.77881384    15
CTC1_L_00420021-02
1 30861U 22344NZ  26070.40836806  .00000000  00000+0  00000-0 0  9992
2 30861  95.0000 240.0000 0000000   0.0000 330.0000 12.77881384    16
CTC1_L_00420021-03
1 30862U 26135QK  26070.40836806  .00000000  00000+0  00000-0 0  9995
2 30862  95.0000 240.0000 0000000   0.0000  60.0000 12.77881384    17
CTC1_L_00420021-04
1 30863U 24337WD  26070.40836806  .00000000  00000+0  00000-0 0  9998
2 30863  95.0000 240.0000 0000000   0.0000 150.0000 12.77881384    18
CTC1_L_00420022-01
1 30864U 26377MN  26070.40836806  .00000000  00000+0  00000-0 0  9995
2 30864  95.0000 252.0000 0000000   0.0000 252.0000 12.77881384    15
CTC1_L_00420022-02
1 30865U 23720UL  26070.40836806  .00000000  00000+0  00000-0 0  9995
2 30865  95.0000 252.0000 0000000   0.0000 342.0000 12.77881384    16
CTC1_L_00420022-03
1 30866U 24952DH  26070.40836806  .00000000  00000+0  00000-0 0  9994
2 30866  95.0000 252.0000 0000000   0.0000  72.0000 12.77881384    17
CTC1_L_00420022-04
1 30867U 24527XT  26070.40836806  .00000000  00000+0  00000-0 0  9993
2 30867  95.0000 252.0000 0000000   0.0000 162.0000 12.77881384    18
CTC1_L_00420023-01
1 30868U 25197KA  26070.40836806  .00000000  00000+0  00000-0 0  9998
2 30868  95.0000 264.0000 0000000   0.0000 264.0000 12.77881384    15
CTC1_L_00420023-02
1 30869U 22888QW  26070.40836806  .00000000  00000+0  00000-0 0  9993
2 30869  95.0000 264.0000 0000000   0.0000 354.0000 12.77881384    16
CTC1_L_00420023-03
1 30870U 22569BU  26070.40836806  .00000000  00000+0  00000-0 0  9991
2 30870  95.0000 264.0000 0000000   0.0000  84.0000 12.77881384    18
CTC1_L_00420023-04
1 30871U 25492AZ  26070.40836806  .00000000  00000+0  00000-0 0  9990
2 30871  95.0000 264.0000 0000000   0.0000 174.0000 12.77881384    19
CTC1_L_00420024-01
1 30872U 22435LY  26070.40836806  .00000000  00000+0  00000-0 0  9995
2 30872  95.0000 276.0000 0000000   0.0000 276.0000 12.77881384    16
CTC1_L_00420024-02
1 30873U 24676JZ  26070.40836806  .00000000  00000+0  00000-0 0  9995
2 30873  95.0000 276.0000 0000000   0.0000   6.0000 12.77881384    18
CTC1_L_00420024-03
1 30874U 23799NT  26070.40836806  .00000000  00000+0  00000-0 0  9991
2 30874  95.0000 276.0000 0000000   0.0000  96.0000 12.77881384    18
CTC1_L_00420024-04
1 30875U 25374P   26070.40836806  .00000000  00000+0  00000-0 0  9993
2 30875  95.0000 276.0000 0000000   0.0000 186.0000 12.77881384    19
CTC1_L_00420025-01
1 30876U 26657BK  26070.40836806  .00000000  00000+0  00000-0 0  9999
2 30876  95.0000 288.0000 0000000   0.0000 288.0000 12.77881384    16
CTC1_L_00420025-02
1 30877U 25367ZB  26070.40836806  .00000000  00000+0  00000-0 0  9997
2 30877  95.0000 288.0000 0000000   0.0000  18.0000 12.77881384    18
CTC1_L_00420025-03
1 30878U 26939NQ  26070.40836806  .00000000  00000+0  00000-0 0  9994
2 30878  95.0000 288.0000 0000000   0.0000 108.0000 12.77881384    19
CTC1_L_00420025-04
1 30879U 23735HE  26070.40836806  .00000000  00000+0  00000-0 0  9996
2 30879  95.0000 288.0000 0000000   0.0000 198.0000 12.77881384    19
CTC1_L_00420026-01
1 30880U 25571ZD  26070.40836806  .00000000  00000+0  00000-0 0  9998
2 30880  95.0000 300.0000 0000000   0.0000 300.0000 12.77881384    11
CTC1_L_00420026-02
1 30881U 23043FT  26070.40836806  .00000000  00000+0  00000-0 0  9991
2 30881  95.0000 300.0000 0000000   0.0000  30.0000 12.77881384    12
CTC1_L_00420026-03
1 30882U 24280WL  26070.40836806  .00000000  00000+0  00000-0 0  9996
2 30882  95.0000 300.0000 0000000   0.0000 120.0000 12.77881384    13
CTC1_L_00420026-04
1 30883U 23776GF  26070.40836806  .00000000  00000+0  00000-0 0  9996
2 30883  95.0000 300.0000 0000000   0.0000 210.0000 12.77881384    14
CTC1_L_00420027-01
1 30884U 24455RG  26070.40836806  .00000000  00000+0  00000-0 0  9992
2 30884  95.0000 312.0000 0000000   0.0000 312.0000 12.77881384    11
CTC1_L_00420027-02
1 30885U 26229DJ  26070.40836806  .00000000  00000+0  00000-0 0  9994
2 30885  95.0000 312.0000 0000000   0.0000  42.0000 12.77881384    12
CTC1_L_00420027-03
1 30886U 26487UQ  26070.40836806  .00000000  00000+0  00000-0 0  9991
2 30886  95.0000 312.0000 0000000   0.0000 132.0000 12.77881384    13
CTC1_L_00420027-04
1 30887U 23880ZH  26070.40836806  .00000000  00000+0  00000-0 0  9996
2 30887  95.0000 312.0000 0000000   0.0000 222.0000 12.77881384    14
CTC1_L_00420028-01
1 30888U 26894TS  26070.40836806  .00000000  00000+0  00000-0 0  9995
2 30888  95.0000 324.0000 0000000   0.0000 324.0000 12.77881384    11
CTC1_L_00420028-02
1 30889U 22884UQ  26070.40836806  .00000000  00000+0  00000-0 0  9991
2 30889  95.0000 324.0000 0000000   0.0000  54.0000 12.77881384    12
CTC1_L_00420028-03
1 30890U 26154JS  26070.40836806  .00000000  00000+0  00000-0 0  9997
2 30890  95.0000 324.0000 0000000   0.0000 144.0000 12.77881384    14
CTC1_L_00420028-04
1 30891U 25319LZ  26070.40836806  .00000000  00000+0  00000-0 0  9990
2 30891  95.0000 324.0000 0000000   0.0000 234.0000 12.77881384    15
CTC1_L_00420029-01
1 30892U 25053DI  26070.40836806  .00000000  00000+0  00000-0 0  9996
2 30892  95.0000 336.0000 0000000   0.0000 336.0000 12.77881384    12
CTC1_L_00420029-02
1 30893U 24164SR  26070.40836806  .00000000  00000+0  00000-0 0  9999
2 30893  95.0000 336.0000 0000000   0.0000  66.0000 12.77881384    13
CTC1_L_00420029-03
1 30894U 24033SW  26070.40836806  .00000000  00000+0  00000-0 0  9995
2 30894  95.0000 336.0000 0000000   0.0000 156.0000 12.77881384    14
CTC1_L_00420029-04
1 30895U 23521RD  26070.40836806  .00000000  00000+0  00000-0 0  9997
2 30895  95.0000 336.0000 0000000   0.0000 246.0000 12.77881384    15
CTC1_L_00420030-01
1 30896U 23272YH  26070.40836806  .00000000  00000+0  00000-0 0  9991
2 30896  95.0000 348.0000 0000000   0.0000 348.0000 12.77881384    12
CTC1_L_00420030-02
1 30897U 22793CT  26070.40836806  .00000000  00000+0  00000-0 0  9999
2 30897  95.0000 348.0000 0000000   0.0000  78.0000 12.77881384    13
CTC1_L_00420030-03
1 30898U 23677RX  26070.40836806  .00000000  00000+0  00000-0 0  9992
2 30898  95.0000 348.0000 0000000   0.0000 168.0000 12.77881384    14
CTC1_L_00420030-04
1 30899U 24815EK  26070.40836806  .00000000  00000+0  00000-0 0  9998
2 30899  95.0000 348.0000 0000000   0.0000 258.0000 12.77881384    15
